HIMAWARI-8              
1 40267U 14060A   23300.81012978 -.00000278  00000+0  00000+0 0  9990
2 40267   0.0474  83.5204 0000942 127.4036 257.3096  1.00271039 33209
